H1 CPF 01  gfz 2021 12 30 13  8642 terrasarx 
H2 0702601  6201 31698    2021 12 30 12 59 42 2022 01 04 00 00 42   120 1 1  0 0 0
H9
10 0 59580  72702.000000  0    4276785.835  -1948936.311  -5044145.113
10 0 59580  72822.000000  0    4740893.585  -2401409.767  -4391383.134
10 0 59580  72942.000000  0    5114930.243  -2819450.481  -3661703.187
10 0 59580  73062.000000  0    5392975.431  -3194107.108  -2867817.677
10 0 59580  73182.000000  0    5570922.921  -3517083.577  -2023595.463
10 0 59580  73302.000000  0    5646549.481  -3780921.859  -1143821.418
10 0 59580  73422.000000  0    5619547.527  -3979172.320   -243936.156
10 0 59580  73542.000000  0    5491519.753  -4106546.264    660239.958
10 0 59580  73662.000000  0    5265934.932  -4159047.500   1552792.735
10 0 59580  73782.000000  0    4948045.046  -4134077.843   2418003.928
10 0 59580  73902.000000  0    4544766.191  -4030512.705   3240636.511
10 0 59580  74022.000000  0    4064527.763  -3848747.190   4006209.394
10 0 59580  74142.000000  0    3517093.361  -3590711.823   4701257.530
10 0 59580  74262.000000  0    2913355.931  -3259855.932   5313571.068
10 0 59580  74382.000000  0    2265115.798  -2861099.936   5832408.289
10 0 59580  74502.000000  0    1584844.780  -2400758.475   6248680.783
10 0 59580  74622.000000  0     885442.192  -1886436.605   6555106.507
10 0 59580  74742.000000  0     179988.118  -1326901.070   6746331.085
10 0 59580  74862.000000  0    -518501.637   -731928.665   6819015.726
10 0 59580  74982.000000  0   -1197314.744   -112134.326   6771891.227
10 0 59580  75102.000000  0   -1844272.655    521217.868   6605778.717
10 0 59580  75222.000000  0   -2447948.346   1156418.762   6323576.335
10 0 59580  75342.000000  0   -2997868.478   1781529.570   5930211.984
10 0 59580  75462.000000  0   -3484696.797   2384605.705   5432563.138
10 0 59580  75582.000000  0   -3900396.760   2953926.235   4839343.335
10 0 59580  75702.000000  0   -4238369.157   3478223.934   4160954.950
10 0 59580  75822.000000  0   -4493562.726   3946911.435   3409311.342
10 0 59580  75942.000000  0   -4662554.697   4350298.924   2597629.456
10 0 59580  76062.000000  0   -4743598.134   4679799.016   1740196.532
10 0 59580  76182.000000  0   -4736635.286   4928112.529    852114.151
10 0 59580  76302.000000  0   -4643277.127   5089389.142    -50974.133
10 0 59580  76422.000000  0   -4466749.989   5159361.446   -953166.136
10 0 59580  76542.000000  0   -4211807.808   5135447.562  -1838592.331
10 0 59580  76662.000000  0   -3884611.751   5016817.299  -2691703.006
10 0 59580  76782.000000  0   -3492585.035   4804423.947  -3497548.145
10 0 59580  76902.000000  0   -3044242.926   4500998.039  -4242042.240
10 0 59580  77022.000000  0   -2549005.285   4111006.431  -4912208.139
10 0 59580  77142.000000  0   -2016996.705   3640579.403  -5496396.591
10 0 59580  77262.000000  0   -1458838.895   3097407.679  -5984480.970
10 0 59580  77382.000000  0    -885438.347   2490609.596  -6368023.356
10 0 59580  77502.000000  0    -307774.518   1830572.928  -6640408.600
10 0 59580  77622.000000  0     263306.745   1128775.776  -6796947.149
10 0 59580  77742.000000  0     817291.574    397588.698  -6834947.638
10 0 59580  77862.000000  0    1344187.726   -349939.374  -6753758.902
10 0 59580  77982.000000  0    1834700.464  -1100309.401  -6554778.411
10 0 59580  78102.000000  0    2280392.325  -1839809.403  -6241430.485
10 0 59580  78222.000000  0    2673826.488  -2554758.671  -5819113.938
10 0 59580  78342.000000  0    3008691.107  -3231756.839  -5295120.428
10 0 59580  78462.000000  0    3279903.724  -3857935.997  -4678519.376
10 0 59580  78582.000000  0    3483690.511  -4421206.283  -3980009.811
10 0 59580  78702.000000  0    3617640.811  -4910492.031  -3211745.488
10 0 59580  78822.000000  0    3680737.255  -5315956.460  -2387132.240
10 0 59580  78942.000000  0    3673357.450  -5629208.066  -1520597.245
10 0 59580  79062.000000  0    3597247.534  -5843481.094   -627336.403
10 0 59580  79182.000000  0    3455467.542  -5953787.424    276956.566
10 0 59580  79302.000000  0    3252308.497  -5957033.560   1176372.473
10 0 59580  79422.000000  0    2993185.462  -5852101.287   2055075.170
10 0 59580  79542.000000  0    2684506.591  -5639886.452   2897590.575
10 0 59580  79662.000000  0    2333522.272  -5323297.017   3689086.206
10 0 59580  79782.000000  0    1948159.809  -4907211.739   4415637.231
10 0 59580  79902.000000  0    1536847.007  -4398399.461   5064474.763
10 0 59580  80022.000000  0    1108329.908  -3805401.513   5624210.619
10 0 59580  80142.000000  0     671486.816  -3138379.308   6085035.745
10 0 59580  80262.000000  0     235144.382  -2408931.787   6438885.737
10 0 59580  80382.000000  0    -192099.486  -1629888.475   6679574.844
10 0 59580  80502.000000  0    -602043.333   -815081.579   6802898.290
10 0 59580  80622.000000  0    -987038.329     20901.148   6806702.366
10 0 59580  80742.000000  0   -1340130.189    862978.017   6690919.555
10 0 59580  80862.000000  0   -1655184.321   1695844.862   6457569.294
10 0 59580  80982.000000  0   -1926992.623   2504252.255   6110725.111
10 0 59580  81102.000000  0   -2151360.316   3273284.941   5656447.833
10 0 59580  81222.000000  0   -2325171.062   3988638.593   5102685.561
10 0 59580  81342.000000  0   -2446430.506   4636890.343   4459141.753
10 0 59580  81462.000000  0   -2514286.330   5205757.614   3737110.317
10 0 59580  81582.000000  0   -2529024.329   5684339.258   2949280.066
10 0 59580  81702.000000  0   -2492040.005   6063332.576   2109511.452
10 0 59580  81822.000000  0   -2405786.821   6335222.037   1232590.330
10 0 59580  81942.000000  0   -2273701.496   6494434.724    333962.380
10 0 59580  82062.000000  0   -2100108.513   6537458.267   -570546.235
10 0 59580  82182.000000  0   -1890106.497   6462918.600  -1465016.812
10 0 59580  82302.000000  0   -1649437.983   6271612.947  -2333730.276
10 0 59580  82422.000000  0   -1384346.202   5966494.683  -3161450.638
10 0 59580  82542.000000  0   -1101424.843   5552618.313  -3933693.971
10 0 59580  82662.000000  0    -807464.211   5037044.779  -4636982.083
10 0 59580  82782.000000  0    -509296.963   4428708.804  -5259073.687
10 0 59580  82902.000000  0    -213646.777   3738253.919  -5789170.899
10 0 59580  83022.000000  0      73016.898   2977836.838  -6218098.208
10 0 59580  83142.000000  0     344614.239   2160906.185  -6538449.873
10 0 59580  83262.000000  0     595577.971   1301962.775  -6744706.014
10 0 59580  83382.000000  0     820962.809    416303.668  -6833318.772
10 0 59580  83502.000000  0    1016539.145   -480246.221  -6802766.515
10 0 59580  83622.000000  0    1178869.649  -1371611.382  -6653576.152
10 0 59580  83742.000000  0    1305367.955  -2241745.941  -6388313.635
10 0 59580  83862.000000  0    1394339.576  -3074914.696  -6011545.717
10 0 59580  83982.000000  0    1445003.978  -3855974.235  -5529771.507
10 0 59580  84102.000000  0    1457496.389  -4570648.778  -4951320.149
10 0 59580  84222.000000  0    1432851.065  -5205792.631  -4286217.263
10 0 59580  84342.000000  0    1372964.826  -5749638.545  -3546022.808
10 0 59580  84462.000000  0    1280540.711  -6192025.588  -2743638.293
10 0 59580  84582.000000  0    1159014.248  -6524600.254  -1893087.272
10 0 59580  84702.000000  0    1012463.201  -6740986.627  -1009271.771
10 0 59580  84822.000000  0     845501.582  -6836919.815   -107708.570
10 0 59580  84942.000000  0     663161.533  -6810338.261    795748.692
10 0 59580  85062.000000  0     470765.929  -6661433.256   1685195.668
10 0 59580  85182.000000  0     273794.717  -6392653.501   2544966.792
10 0 59580  85302.000000  0      77748.441  -6008662.558   3359921.353
10 0 59580  85422.000000  0    -111988.091  -5516250.106   4115716.807
10 0 59580  85542.000000  0    -290277.888  -4924203.588   4799064.152
10 0 59580  85662.000000  0    -452356.081  -4243141.620   5397963.093
10 0 59580  85782.000000  0    -593943.411  -3485313.869   5901911.387
10 0 59580  85902.000000  0    -711347.005  -2664370.555   6302085.693
10 0 59580  86022.000000  0    -801546.025  -1795108.982   6591488.325
10 0 59580  86142.000000  0    -862260.829   -893204.214   6765062.843
10 0 59580  86262.000000  0    -892004.959     25075.110   6819778.437
10 0 59580  86382.000000  0    -890118.747    943160.812   6754679.769
10 0 59581    102.000000  0    -856782.844   1844483.714   6570902.576
10 0 59581    222.000000  0    -793012.246   2712772.047   6271654.960
10 0 59581    342.000000  0    -700631.410   3532345.289   5862165.104
10 0 59581    462.000000  0    -582230.755   4288399.667   5349595.035
10 0 59581    582.000000  0    -441104.790   4967279.338   4742921.383
10 0 59581    702.000000  0    -281173.479   5556731.145   4052784.317
10 0 59581    822.000000  0    -106887.287   6046133.108   3291303.413
10 0 59581    942.000000  0      76879.882   6426696.027   2471870.422
10 0 59581   1062.000000  0     264950.002   6691635.784   1608910.023
10 0 59581   1182.000000  0     451969.877   6836300.355    717619.675
10 0 59581   1302.000000  0     632545.009   6858256.798   -186304.438
10 0 59581   1422.000000  0     801375.645   6757333.910  -1086952.617
10 0 59581   1542.000000  0     953389.999   6535618.326  -1968490.460
10 0 59581   1662.000000  0    1083871.865   6197406.298  -2815444.355
10 0 59581   1782.000000  0    1188580.317   5749112.018  -3612978.355
10 0 59581   1902.000000  0    1263858.584   5199135.010  -4347156.475
10 0 59581   2022.000000  0    1306729.248   4557690.333  -5005184.989
10 0 59581   2142.000000  0    1314973.605   3836606.748  -5575629.588
10 0 59581   2262.000000  0    1287193.377   3049099.515  -6048605.623
10 0 59581   2382.000000  0    1222854.043   2209520.926  -6415939.158
10 0 59581   2502.000000  0    1122308.943   1333095.921  -6671295.712
10 0 59581   2622.000000  0     986804.525    435647.859  -6810279.668
10 0 59581   2742.000000  0     818466.367   -466683.514  -6830502.054
99
